{"spkid": "54088805", "covariance": {"labels": ["e", "q", "tp", "node", "peri", "i"], "elements": [{"label": "e", "sigma": 3.87064254698446e-09, "name": "e", "units": null, "title": "eccentricity", "value": ".6004107917852901"}, {"units": "au", "title": "perihelion distance", "value": "1.002628963995803", "name": "q", "sigma": 9.60347262162901e-09, "label": "q"}, {"label": "tp", "name": "tp", "sigma": 4.36439592577161e-06, "title": "time of perihelion passage", "value": "2460601.482537853164", "units": "TDB"}, {"label": "node", "name": "om", "sigma": 3.53987453550074e-06, "units": "deg", "title": "longitude of the ascending node", "value": "32.7886302457502"}, {"label": "peri", "units": "deg", "title": "argument of perihelion", "value": "348.8117927122161", "sigma": 6.88878559276091e-06, "name": "w"}, {"sigma": 2.84066548817043e-06, "name": "i", "units": "deg", "title": "inclination", "value": "7.618779537770151", "label": "i"}], "data": [["1.498187372652634E-17", "-3.688887037131237E-17", "-1.532350921913323E-14", "-3.491530708970632E-15", "-1.644565688457648E-14", "-9.600592345431259E-16"], ["-3.688887037131237E-17", "9.222668639437803E-17", "3.834262463308606E-14", "8.639089309817068E-15", "4.12406014314286E-14", "2.081725018045924E-15"], ["-1.532350921913323E-14", "3.834262463308606E-14", "1.904795179689184E-11", "-2.107334150184782E-12", "2.642416879079407E-11", "-2.282443322763679E-13"], ["-3.491530708970632E-15", "8.639089309817068E-15", "-2.107334150184782E-12", "1.25307117270866E-11", "-1.444223705898934E-11", "3.601940513950469E-12"], ["-1.644565688457648E-14", "4.12406014314286E-14", "2.642416879079407E-11", "-1.444223705898934E-11", "4.745536694303034E-11", "-3.73076734566599E-12"], ["-9.600592345431259E-16", "2.081725018045924E-15", "-2.282443322763679E-13", "3.601940513950469E-12", "-3.73076734566599E-12", "8.069380415682535E-12"]], "epoch": "2460062.5"}, "elements": [{"name": "e", "sigma": "4.0969E-9", "units": null, "value": ".6014797713420045", "title": "eccentricity", "label": "e"}, {"label": "a", "units": "au", "value": "2.51475568580653", "title": "semi-major axis", "name": "a", "sigma": "3.5374E-9"}, {"label": "q", "title": "perihelion distance", "value": "1.002181010926613", "units": "au", "sigma": "9.7076E-9", "name": "q"}, {"label": "i", "title": "inclination; angle with respect to x-y ecliptic plane", "value": "7.609553800925791", "units": "deg", "name": "i", "sigma": "2.8439E-6"}, {"units": "deg", "value": "32.74230382047951", "title": "longitude of the ascending node", "name": "om", "sigma": "3.5496E-6", "label": "node"}, {"label": "peri", "name": "w", "sigma": "6.8987E-6", "units": "deg", "value": "348.9446972029286", "title": "argument of perihelion"}, {"label": "M", "name": "ma", "sigma": "1.0573E-6", "title": "mean anomaly", "value": "148.0444259136314", "units": "deg"}, {"name": "tp", "sigma": "4.3399E-6", "value": "2460601.493293972341", "title": "time of perihelion passage", "units": "TDB", "label": "tp"}, {"sigma": "3.0734E-6", "name": "per", "title": "sidereal orbital period", "value": "1456.606102115336", "units": "d", "label": "period"}, {"label": "n", "name": "n", "sigma": "5.2148E-10", "units": "deg/d", "value": ".2471498639729677", "title": "mean motion"}, {"label": "Q", "units": "au", "title": "aphelion distance", "value": "4.027330360686447", "name": "ad", "sigma": "5.6651E-9"}], "epoch": "2461200.5"}